     2.100          NAVIGATION                              RINEX VERSION / TYPE
fic2rin                                 11/14/2010 00:47:56 PGM / RUN BY / DATE
                                                            END OF HEADER
26 10 11 13  1 59 44.0 -.495342537761D-04 -.807176547823D-11  .000000000000D+00
     .150000000000D+02  .412500000000D+02  .403516808095D-08  .912033317483D+00
     .228919088840D-05  .198832806200D-01  .805966556072D-05  .515364325714D+04
     .525584000000D+06 -.257045030594D-06 -.147743318610D+01  .122934579849D-06
     .988972031135D+00  .243562500000D+03  .111506074874D+01 -.813283876538D-08
    -.196079596074D-09  .100000000000D+01  .160900000000D+04  .000000000000D+00
     .240000000000D+01  .000000000000D+00 -.605359673500D-08  .150000000000D+02
     .519696000000D+06  .400000000000D+01
27 10 11 13  1 59 44.0  .207216944546D-03  .352429196937D-11  .000000000000D+00
     .900000000000D+02  .105312500000D+02  .412838624957D-08  .205455659785D+01
     .329688191414D-06  .217531282688D-01  .424124300480D-05  .515355632019D+04
     .525584000000D+06  .374391674995D-06 -.550364552504D+00 -.782310962677D-07
     .979893024021D+00  .297718750000D+03 -.134934197063D+01 -.774353683511D-08
    -.120362156424D-09  .100000000000D+01  .160900000000D+04  .000000000000D+00
     .240000000000D+01  .000000000000D+00 -.419095158577D-08  .900000000000D+02
     .519876000000D+06  .400000000000D+01
 6 10 11 13  1 59 28.0  .422475393862D-03 -.125055521494D-10  .000000000000D+00
     .260000000000D+02 -.437500000000D+02  .489841832450D-08 -.299208753586D+01
    -.220164656639D-05  .616976711899D-02  .926107168198D-05  .515366053963D+04
     .525568000000D+06  .428408384323D-07  .154137360051D+01  .745058059692D-07
     .934743376865D+00  .183750000000D+03 -.916237232021D+00 -.811105214359D-08
     .143934566881D-09  .100000000000D+01  .160900000000D+04  .000000000000D+00
     .240000000000D+01  .000000000000D+00 -.465661287308D-08  .260000000000D+02
     .523236000000D+06  .400000000000D+01
12 10 11 13  1 59 44.0 -.544348731637D-04  .352429196937D-11  .000000000000D+00
     .140000000000D+02 -.636562500000D+02  .427803534020D-08 -.417836376722D+00
    -.333040952682D-05  .331773515791D-02  .687129795551D-05  .515356881714D+04
     .525584000000D+06  .242143869400D-07  .558820621305D+00 -.540167093277D-07
     .972933751556D+00  .256375000000D+03 -.324046438452D+00 -.804247785863D-08
    -.116433421348D-09  .100000000000D+01  .160900000000D+04  .000000000000D+00
     .240000000000D+01  .000000000000D+00 -.116415321827D-07  .140000000000D+02
     .523986000000D+06  .400000000000D+01
 6 10 11 13  3 59 28.0  .422385521233D-03 -.125055521494D-10  .000000000000D+00
     .640000000000D+02 -.363437500000D+02  .497842165696D-08 -.194205154713D+01
    -.174902379513D-05  .617117423099D-02  .996887683868D-05  .515365735817D+04
     .532768000000D+06 -.931322574615D-07  .154131494627D+01  .128522515297D-06
     .934743763075D+00  .173656250000D+03 -.916080249208D+00 -.824677208259D-08
     .129648257513D-09  .100000000000D+01  .160900000000D+04  .000000000000D+00
     .240000000000D+01  .000000000000D+00 -.465661287308D-08  .640000000000D+02
     .525606000000D+06  .400000000000D+01
12 10 11 13  3 59 44.0 -.544087961316D-04  .352429196937D-11  .000000000000D+00
     .150000000000D+02 -.608125000000D+02  .434089510142D-08  .632308192711D+00
    -.332482159138D-05  .331807101611D-02  .640004873276D-05  .515356951904D+04
     .532784000000D+06  .465661287308D-07  .558762711693D+00 -.149011611938D-07
     .972932857713D+00  .260562500000D+03 -.323947319900D+00 -.804462080503D-08
    -.127505311108D-09  .100000000000D+01  .160900000000D+04  .000000000000D+00
     .240000000000D+01  .000000000000D+00 -.116415321827D-07  .150000000000D+02
     .525606000000D+06  .400000000000D+01
26 10 11 13  3 59 44.0 -.495919957757D-04 -.807176547823D-11  .000000000000D+00
     .160000000000D+02  .349687500000D+02  .386158942213D-08  .196219866182D+01
     .156275928020D-05  .198837124044D-01  .797584652901D-05  .515364445686D+04
     .532784000000D+06 -.162050127983D-06 -.147749184472D+01 -.463798642159D-06
     .988973422370D+00  .240875000000D+03  .111509098141D+01 -.763996109219D-08
     .278583032673D-10  .100000000000D+01  .160900000000D+04  .000000000000D+00
     .240000000000D+01  .000000000000D+00 -.605359673500D-08  .160000000000D+02
     .525606000000D+06  .400000000000D+01
27 10 11 13  3 59 44.0  .207242090255D-03  .352429196937D-11  .000000000000D+00
     .910000000000D+02  .159062500000D+02  .417695970142D-08  .310477455750D+01
     .907108187675D-06  .217518813442D-01  .489130616188D-05  .515355894470D+04
     .532784000000D+06  .409781932831D-06 -.550421163045D+00  .234693288803D-06
     .979892435927D+00  .289000000000D+03 -.134931005122D+01 -.775103714752D-08
     .628597612185D-10  .100000000000D+01  .160900000000D+04  .000000000000D+00
     .240000000000D+01  .000000000000D+00 -.419095158577D-08  .910000000000D+02
     .525606000000D+06  .400000000000D+01
 1 10 11 13  4  0  0.0 -.181679613888D-03 -.352429196937D-11  .000000000000D+00
     .106000000000D+03 -.648437500000D+02  .440839791318D-08 -.248572000028D+01
    -.327080488205D-05  .440039101522D-02  .644661486149D-05  .515352593994D+04
     .532800000000D+06  .260770320892D-07  .543314574730D+00  .130385160446D-07
     .966827796281D+00  .258531250000D+03  .948201627787D+00 -.804783522464D-08
    -.964325882329D-10  .100000000000D+01  .160900000000D+04  .000000000000D+00
     .340000000000D+01  .630000000000D+02 -.190921127796D-07  .106000000000D+03
     .525606000000D+06  .400000000000D+01
 2 10 11 13  4  0  0.0  .302013941109D-03  .250111042988D-11  .000000000000D+00
     .110000000000D+02  .239375000000D+02  .505378193887D-08  .230323477984D+01
     .127963721752D-05  .978037493769D-02  .740773975849D-05  .515366458321D+04
     .532800000000D+06 -.184401869774D-06  .262444444166D+01  .178813934326D-06
     .939536295869D+00  .221218750000D+03 -.313278514944D+01 -.827605901679D-08
     .115004790411D-09  .100000000000D+01  .160900000000D+04  .000000000000D+00
     .240000000000D+01  .000000000000D+00 -.172294676304D-07  .110000000000D+02
     .525606000000D+06  .400000000000D+01
 3 10 11 13  4  0  0.0  .634498894215D-03  .522959453519D-11  .000000000000D+00
     .123000000000D+03 -.516250000000D+02  .509021202776D-08  .219507189673D+01
    -.283122062683D-05  .138204006944D-01  .970438122749D-05  .515362427902D+04
     .532800000000D+06  .558793544769D-08  .146926114577D+01 -.281259417534D-06
     .927515812539D+00  .173468750000D+03  .105800008257D+01 -.818962684512D-08
     .935753263594D-10  .100000000000D+01  .160900000000D+04  .000000000000D+00
     .240000000000D+01  .000000000000D+00 -.465661287308D-08  .123000000000D+03
     .525606000000D+06  .400000000000D+01
 4 10 11 13  4  0  0.0  .218222383410D-03  .966338120634D-11  .000000000000D+00
     .600000000000D+02  .253125000000D+02  .508628329269D-08 -.101426303350D+01
     .151805579662D-05  .947222334798D-02  .693462789059D-05  .515377936554D+04
     .532800000000D+06  .173225998878D-06  .264209244900D+01  .577419996262D-07
     .938666974356D+00  .227968750000D+03  .674844877998D+00 -.834891919457D-08
     .185007706314D-09  .100000000000D+01  .160900000000D+04  .000000000000D+00
     .240000000000D+01  .000000000000D+00 -.605359673500D-08  .600000000000D+02
     .525606000000D+06  .400000000000D+01
 5 10 11 13  4  0  0.0 -.665560364723D-04 -.591171556152D-11  .000000000000D+00
     .930000000000D+02  .143437500000D+02  .477127017113D-08 -.229297720204D+01
     .581145286560D-06  .205007498153D-02  .749528408051D-05  .515355970764D+04
     .532800000000D+06 -.372529029846D-07 -.259833321624D+01 -.670552253723D-07
     .956620223941D+00  .236156250000D+03  .181148288868D+00 -.814783939022D-08
    -.139648674071D-09  .100000000000D+01  .160900000000D+04  .000000000000D+00
     .240000000000D+01  .000000000000D+00 -.977888703346D-08  .930000000000D+02
     .525606000000D+06  .400000000000D+01
 7 10 11 13  4  0  0.0 -.679865479469D-06  .341060513165D-12  .000000000000D+00
     .750000000000D+02  .144687500000D+02  .441625538333D-08  .577460067244D+00
     .663101673126D-06  .417633214965D-02  .517070293427D-05  .515368384171D+04
     .532800000000D+06 -.186264514923D-07 -.495085262654D+00 -.186264514923D-07
     .973281700770D+00  .282375000000D+03 -.313311924921D+01 -.817962642856D-08
    -.714315468392D-12  .100000000000D+01  .160900000000D+04  .000000000000D+00
     .240000000000D+01  .000000000000D+00 -.102445483208D-07  .750000000000D+02
     .525606000000D+06  .400000000000D+01
 8 10 11 13  4  0  0.0  .692671164870D-05  .113686837722D-12  .000000000000D+00
     .109000000000D+03  .943750000000D+01  .394837875154D-08  .167577748743D-01
     .353902578354D-06  .115251231473D-01  .545755028725D-05  .515364618874D+04
     .532800000000D+06  .894069671631D-07 -.423668930163D+00  .186264514923D-07
     .994835773989D+00  .289500000000D+03 -.311585849530D+01 -.802176271004D-08
     .150006248362D-10  .100000000000D+01  .160900000000D+04  .000000000000D+00
     .340000000000D+01  .000000000000D+00 -.419095158577D-08  .109000000000D+03
     .525606000000D+06  .400000000000D+01
 9 10 11 13  4  0  0.0  .421819277108D-04  .227373675443D-11  .000000000000D+00
     .700000000000D+02  .110312500000D+02  .428875007223D-08 -.102694161784D+00
     .657513737679D-06  .169723045547D-01  .543892383575D-05  .515369674301D+04
     .532800000000D+06 -.195577740669D-06 -.524996651852D+00  .447034835815D-07
     .982281561090D+00  .287125000000D+03  .155363647474D+01 -.836106255753D-08
     .571452374714D-10  .100000000000D+01  .160900000000D+04  .000000000000D+00
     .340000000000D+01  .000000000000D+00 -.558793544769D-08  .700000000000D+02
     .525606000000D+06  .400000000000D+01
